[{"OBJECT_NAME":"STARLINK-2141","OBJECT_ID":"2021-017K","EPOCH":"2026-03-10T00:00:02.999808","MEAN_MOTION":15.45107749,"ECCENTRICITY":0.00010512,"INCLINATION":53.1593,"RA_OF_ASC_NODE":202.4009,"ARG_OF_PERICENTER":80.066,"MEAN_ANOMALY":252.5312,"EPHEMERIS_TYPE":0,"CLASSIFICATION_TYPE":"U","NORAD_CAT_ID":47731,"ELEMENT_SET_NO":999,"REV_AT_EPOCH":586,"BSTAR":0.022459808,"MEAN_MOTION_DOT":0.01187441,"MEAN_MOTION_DDOT":0},{"OBJECT_NAME":"OBJECT V","OBJECT_ID":"2022-019V","EPOCH":"2026-03-09T22:31:38.706816","MEAN_MOTION":15.49396795,"ECCENTRICITY":0.0007374,"INCLINATION":97.3594,"RA_OF_ASC_NODE":153.9114,"ARG_OF_PERICENTER":151.1775,"MEAN_ANOMALY":208.9885,"EPHEMERIS_TYPE":0,"CLASSIFICATION_TYPE":"U","NORAD_CAT_ID":51843,"ELEMENT_SET_NO":999,"REV_AT_EPOCH":22399,"BSTAR":0.00055013875,"MEAN_MOTION_DOT":0.00030193,"MEAN_MOTION_DDOT":0}]
